NORAD_CAT_ID,OBJECT_NAME,OBJECT_TYPE,EPOCH,MEAN_MOTION,ECCENTRICITY,INCLINATION,RA_OF_ASC_NODE,ARG_OF_PERICENTER,MEAN_ANOMALY,BSTAR,MEAN_MOTION_DOT,MEAN_MOTION_DDOT,TLE_LINE0,TLE_LINE1,TLE_LINE2,SEMIMAJOR_AXIS,PERIOD,APOGEE,PERIGEE,DECAYED
51784.0,STARLINK-3632,PAYLOAD,2023-11-11 00:03:53,15.08799186,0.0001795,53.2163,203.5156,102.7649,257.3544,0.00077451,0.00012046,0.0,0 STARLINK-3632,1 51784U 22017S   23315.00270493  .00012046  00000-0  77451-3 0  9996,2 51784  53.2163 203.5156 0001795 102.7649 257.3544 15.08799186 95659,6918.005,95.44,541.112,538.628,0.0
51784.0,STARLINK-3632,PAYLOAD,2023-11-11 09:36:11,15.08845815,0.0001356,53.2166,201.7315,93.053,267.0617,6.5291e-05,7.51e-06,0.0,0 STARLINK-3632,1 51784U 22017S   23315.40012939  .00000751  00000-0  65291-4 0  9999,2 51784  53.2166 201.7315 0001356  93.0530 267.0617 15.08845815 95710,6917.863,95.437,540.666,538.79,0.0
51784.0,STARLINK-3632,PAYLOAD,2023-11-11 20:43:54,15.08835431,0.0001468,53.2165,199.6497,99.2017,260.9141,1.6932e-05,-1.9e-07,0.0,0 STARLINK-3632,1 51784U 22017S   23315.86381948 -.00000019  00000-0  16932-4 0  9994,2 51784  53.2165 199.6497 0001468  99.2017 260.9141 15.08835431 95781,6917.894,95.438,540.775,538.744,0.0
51784.0,STARLINK-3632,PAYLOAD,2023-11-11 22:19:17,15.08836199,0.0001454,53.2166,199.3522,95.671,264.4448,1.7545e-05,-9e-08,0.0,0 STARLINK-3632,1 51784U 22017S   23315.93005831 -.00000009  00000-0  17545-4 0  9996,2 51784  53.2166 199.3522 0001454  95.6710 264.4448 15.08836199 94143,6917.892,95.438,540.763,538.751,0.0
51784.0,STARLINK-3632,PAYLOAD,2023-11-12 01:30:03,15.08838436,0.0001468,53.2164,198.7574,94.9856,265.1303,3.0198e-05,1.93e-06,0.0,0 STARLINK-3632,1 51784U 22017S   23316.06253633  .00000193  00000-0  30198-4 0  9998,2 51784  53.2164 198.7574 0001468  94.9856 265.1303 15.08838436 94165,6917.885,95.438,540.766,538.735,0.0
51784.0,STARLINK-3632,PAYLOAD,2023-11-12 22:10:03,15.08841557,0.0001468,53.2155,194.8918,102.0466,258.0691,5.5347e-05,5.93e-06,0.0,0 STARLINK-3632,1 51784U 22017S   23316.92365484  .00000593  00000-0  55347-4 0  9998,2 51784  53.2155 194.8918 0001468 102.0466 258.0691 15.08841557 94295,6917.876,95.437,540.756,538.725,0.0
51784.0,STARLINK-3632,PAYLOAD,2023-11-12 23:45:26,15.08844374,0.000144,53.2163,194.5939,95.358,264.7576,6.5285e-05,7.51e-06,0.0,0 STARLINK-3632,1 51784U 22017S   23316.98989306  .00000751  00000-0  65285-4 0  9997,2 51784  53.2163 194.5939 0001440  95.3580 264.7576 15.08844374 95955,6917.867,95.437,540.728,538.736,0.0
51784.0,STARLINK-3632,PAYLOAD,2023-11-13 09:17:45,15.08845837,0.0001432,53.2163,192.8096,93.9962,266.1193,6.2508e-05,7.07e-06,0.0,0 STARLINK-3632,1 51784U 22017S   23317.38733169  .00000707  00000-0  62508-4 0  9992,2 51784  53.2163 192.8096 0001432  93.9962 266.1193 15.08845837 94369,6917.863,95.437,540.718,538.737,0.0
51784.0,STARLINK-3632,PAYLOAD,2023-11-13 22:00:50,15.08841829,0.0001441,53.2161,190.4308,89.0451,271.0706,0.00014652,2.045e-05,0.0,0 STARLINK-3632,1 51784U 22017S   23317.91725231  .00002045  00000-0  14652-3 0  9995,2 51784  53.2161 190.4308 0001441  89.0451 271.0706 15.08841829 94447,6917.875,95.437,540.737,538.743,0.0
51784.0,STARLINK-3632,PAYLOAD,2023-11-14 01:11:36,15.08845748,0.0001452,53.2163,189.8355,90.5341,269.5818,0.00012642,1.725e-05,0.0,0 STARLINK-3632,1 51784U 22017S   23318.04973004  .00001725  00000-0  12642-3 0  9994,2 51784  53.2163 189.8355 0001452  90.5341 269.5818 15.08845748 96116,6917.863,95.437,540.732,538.723,0.0
51784.0,STARLINK-3632,PAYLOAD,2023-11-14 09:08:32,15.08839251,0.0001407,53.2161,188.3487,90.5399,269.5755,5.9586e-05,6.6e-06,0.0,0 STARLINK-3632,1 51784U 22017S   23318.38093575  .00000660  00000-0  59586-4 0  9993,2 51784  53.2161 188.3487 0001407  90.5399 269.5755 15.08839251 96164,6917.883,95.438,540.721,538.774,0.0
51784.0,STARLINK-3632,PAYLOAD,2023-11-14 21:51:38,15.08839697,0.0001407,53.2165,185.9686,96.3885,263.7268,-3.4938e-06,-3.44e-06,0.0,0 STARLINK-3632,1 51784U 22017S   23318.91085737 -.00000344  00000-0 -34938-5 0  9999,2 51784  53.2165 185.9686 0001407  96.3885 263.7268 15.08839697 94590,6917.881,95.438,540.72,538.773,0.0
51784.0,STARLINK-3632,PAYLOAD,2023-11-15 21:42:24,15.08846864,0.0001589,53.2118,181.5084,90.3093,269.8081,4.6881e-05,4.58e-06,0.0,0 STARLINK-3632,1 51784U 22017S   23319.90444951  .00000458  00000-0  46881-4 0  9999,2 51784  53.2118 181.5084 0001589  90.3093 269.8081 15.08846864 94749,6917.859,95.437,540.824,538.625,0.0
51784.0,STARLINK-3632,PAYLOAD,2023-11-16 00:53:10,15.08840578,0.0001742,53.2176,180.9137,90.0878,270.0314,8.7748e-05,1.109e-05,0.0,0 STARLINK-3632,1 51784U 22017S   23320.03693215  .00001109  00000-0  87748-4 0  9995,2 51784  53.2176 180.9137 0001742  90.0878 270.0314 15.08840578 96419,6917.879,95.438,540.949,538.539,0.0
51784.0,STARLINK-3632,PAYLOAD,2023-11-16 21:33:11,15.0883708,0.0001486,53.2125,177.0478,90.201,269.9152,7.4454e-05,8.97e-06,0.0,0 STARLINK-3632,1 51784U 22017S   23320.89805463  .00000897  00000-0  74454-4 0  9992,2 51784  53.2125 177.0478 0001486  90.2010 269.9152 15.08837080 94894,6917.889,95.438,540.782,538.726,0.0
51784.0,STARLINK-3632,PAYLOAD,2023-11-17 07:05:30,15.08837087,0.0001487,53.216,175.2655,92.4735,267.6427,4.3563e-06,-2.19e-06,0.0,0 STARLINK-3632,1 51784U 22017S   23321.29549701 -.00000219  00000-0  43563-5 0  9994,2 51784  53.2160 175.2655 0001487  92.4735 267.6427 15.08837087 96607,6917.889,95.438,540.783,538.726,0.0
51784.0,STARLINK-3632,PAYLOAD,2023-11-17 15:02:26,15.08847539,0.0001572,53.2159,173.7795,97.4548,262.6623,-0.00018596,-3.247e-05,0.0,0 STARLINK-3632,1 51784U 22017S   23321.62670049 -.00003247  00000-0 -18596-3 0  9992,2 51784  53.2159 173.7795 0001572  97.4548 262.6623 15.08847539 95004,6917.857,95.437,540.81,538.635,0.0
51784.0,STARLINK-3632,PAYLOAD,2023-11-17 21:23:59,15.08845501,0.0001512,53.2155,172.5895,96.3846,263.7319,-0.00018952,-3.303e-05,0.0,0 STARLINK-3632,1 51784U 22017S   23321.89166045 -.00003303  00000-0 -18952-3 0  9996,2 51784  53.2155 172.5895 0001512  96.3846 263.7319 15.08845501 95046,6917.864,95.437,540.775,538.683,0.0
51784.0,STARLINK-3632,PAYLOAD,2023-11-18 06:56:18,15.08845999,0.0001499,53.2156,170.8053,96.0798,264.0365,-0.00015312,-2.724e-05,0.0,0 STARLINK-3632,1 51784U 22017S   23322.28909818 -.00002724  00000-0 -15312-3 0  9996,2 51784  53.2156 170.8053 0001499  96.0798 264.0365 15.08845999 95104,6917.862,95.437,540.764,538.69,0.0
51784.0,STARLINK-3632,PAYLOAD,2023-11-18 22:50:09,15.08839038,0.0001437,53.2154,167.8315,94.9969,265.1187,5.5224e-05,5.91e-06,0.0,0 STARLINK-3632,1 51784U 22017S   23322.95149828  .00000591  00000-0  55224-4 0  9992,2 51784  53.2154 167.8315 0001437  94.9969 265.1187 15.08839038 96852,6917.883,95.438,540.742,538.754,0.0
51784.0,STARLINK-3632,PAYLOAD,2023-11-19 13:08:37,15.08839345,6.79e-05,53.2213,165.1525,81.2459,278.861,8.5045e-05,1.066e-05,0.0,0 STARLINK-3632,1 51784U 22017S   23323.54765531  .00001066  00000-0  85045-4 0  9995,2 51784  53.2213 165.1525 0000679  81.2459 278.8610 15.08839345 95292,6917.882,95.438,540.217,539.278,0.0
51784.0,STARLINK-3632,PAYLOAD,2023-11-19 21:05:33,15.08834095,0.0001395,53.2165,163.6672,81.5675,278.5475,3.5555e-05,2.78e-06,0.0,0 STARLINK-3632,1 51784U 22017S   23323.87885685  .00000278  00000-0  35555-4 0  9999,2 51784  53.2165 163.6672 0001395  81.5675 278.5475 15.08834095 95342,6917.898,95.438,540.728,538.798,0.0
51784.0,STARLINK-3632,PAYLOAD,2023-11-20 06:37:52,15.08835459,0.0001257,53.2153,161.8828,87.8316,272.282,2.836e-06,-2.43e-06,0.0,0 STARLINK-3632,1 51784U 22017S   23324.27629733 -.00000243  00000-0  28360-5 0  9994,2 51784  53.2153 161.8828 0001257  87.8316 272.2820 15.08835459 97050,6917.894,95.438,540.629,538.89,0.0
51784.0,STARLINK-3632,PAYLOAD,2023-11-20 12:59:24,15.08835961,0.0001074,53.2152,160.6933,89.4475,270.664,2.1696e-06,-2.53e-06,0.0,0 STARLINK-3632,1 51784U 22017S   23324.54125662 -.00000253  00000-0  21696-5 0  9992,2 51784  53.2152 160.6933 0001074  89.4475 270.6640 15.08835961 95445,6917.893,95.438,540.501,539.015,0.0
51784.0,STARLINK-3632,PAYLOAD,2023-11-20 20:56:20,15.08838128,0.0001328,53.2159,159.2073,87.2255,272.8889,2.0487e-06,-2.55e-06,0.0,0 STARLINK-3632,1 51784U 22017S   23324.87245621 -.00000255  00000-0  20487-5 0  9995,2 51784  53.2159 159.2073 0001328  87.2255 272.8889 15.08838128 95497,6917.886,95.438,540.67,538.832,0.0
51784.0,STARLINK-3632,PAYLOAD,2023-11-21 06:28:39,15.08837459,0.0001465,53.2159,157.423,86.8474,273.2686,-4.4045e-06,-3.58e-06,0.0,0 STARLINK-3632,1 51784U 22017S   23325.26989788 -.00000358  00000-0 -44045-5 0  9999,2 51784  53.2159 157.4230 0001465  86.8474 273.2686 15.08837459 95555,6917.888,95.438,540.767,538.74,0.0
51784.0,STARLINK-3632,PAYLOAD,2023-11-21 19:11:43,15.08891144,0.0001642,53.2157,155.0442,77.099,283.0186,-0.00073925,-0.00012051,0.0,0 STARLINK-3632,1 51784U 22017S   23325.79980395 -.00012051  00000-0 -73925-3 0  9992,2 51784  53.2157 155.0442 0001642  77.0990 283.0186 15.08891144 95638,6917.724,95.434,540.725,538.453,0.0
51784.0,STARLINK-3632,PAYLOAD,2023-11-21 22:22:28,15.0890525,0.0001514,53.2157,154.4489,100.9318,259.1844,-0.00091484,-0.00014844,0.0,0 STARLINK-3632,1 51784U 22017S   23325.93227347 -.00014844  00000-0 -91484-3 0  9991,2 51784  53.2157 154.4489 0001514 100.9318 259.1844 15.08905250 97305,6917.681,95.433,540.593,538.499,0.0
51784.0,STARLINK-3632,PAYLOAD,2023-11-22 12:40:58,15.08839011,0.000141,53.2159,151.7728,87.9565,272.1588,0.00011552,1.551e-05,0.0,0 STARLINK-3632,1 51784U 22017S   23326.52845330  .00001551  00000-0  11552-3 0  9992,2 51784  53.2159 151.7728 0001410  87.9565 272.1588 15.08839011 95743,6917.883,95.438,540.724,538.773,0.0
51784.0,STARLINK-3632,PAYLOAD,2023-11-22 19:02:30,15.08842973,0.0001438,53.216,150.5834,89.5568,270.5589,0.0001409,1.955e-05,0.0,0 STARLINK-3632,1 51784U 22017S   23326.79341077  .00001955  00000-0  14090-3 0  9998,2 51784  53.2160 150.5834 0001438  89.5568 270.5589 15.08842973 97433,6917.871,95.437,540.731,538.742,0.0
